LANDSAT 9               
1 49260U 21088A   24064.17563051  .00000805  00000+0  18859-3 0  9990
2 49260  98.1978 135.5272 0001414  98.3722 261.7636 14.57108796129394
